LANDSAT 9               
1 49260U 21088A   24294.21850988  .00001864  00000+0  42375-3 0  9994
2 49260  98.2195   2.2437 0001250  77.2623 282.8716 14.57101542162902
